NORAD_CAT_ID,OBJECT_NAME,OBJECT_TYPE,EPOCH,MEAN_MOTION,ECCENTRICITY,INCLINATION,RA_OF_ASC_NODE,ARG_OF_PERICENTER,MEAN_ANOMALY,BSTAR,MEAN_MOTION_DOT,MEAN_MOTION_DDOT,TLE_LINE0,TLE_LINE1,TLE_LINE2,SEMIMAJOR_AXIS,PERIOD,APOGEE,PERIGEE,DECAYED
49156.0,STARLINK-3085,PAYLOAD,2021-10-16 20:00:01,15.69710724,0.000366,70.0023,34.8966,290.8798,212.5288,-6.6014e-05,-8.073e-05,0.0,0 STARLINK-3085,1 49156U 21082AC  21289.83335648 -.00008073  00000-0 -66014-4 0  9991,2 49156  70.0023  34.8966 0003660 290.8798 212.5288 15.69710724  6313,6737.861999999999,91.737,362.193,357.261,0.0
49156.0,STARLINK-3085,PAYLOAD,2021-10-17 06:00:00,15.69701634,0.0003539,70.0028,33.726,285.0015,52.1891,0.0005189,0.00062071,0.0,0 STARLINK-3085,1 49156U 21082AC  21290.25001157  .00062071  00000-0  51890-3 0  9995,2 49156  70.0028  33.7260 0003539 285.0015  52.1891 15.69701634  3670,6737.888000000001,91.737,362.137,357.36800000000005,0.0
49156.0,STARLINK-3085,PAYLOAD,2021-10-17 12:00:00,15.69737137,0.0003669,70.0028,33.0234,287.9953,21.5073,-0.00015887,-0.00019126,0.0,0 STARLINK-3085,1 49156U 21082AC  21290.50001157 -.00019126  00000-0 -15887-3 0  9994,2 49156  70.0028  33.0234 0003669 287.9953  21.5073 15.69737137  6425,6737.786,91.735,362.12300000000016,357.17900000000014,0.0
49156.0,STARLINK-3085,PAYLOAD,2021-10-17 22:00:00,15.697630800000002,0.0003711,70.0024,31.8522,289.8945,213.4847,-0.00035902,-0.0004288,0.0,0 STARLINK-3085,1 49156U 21082AC  21290.91667824 -.00042880  00000-0 -35902-3 0  9991,2 49156  70.0024  31.8522 0003711 289.8945 213.4847 15.69763080  3667,6737.712,91.734,362.077,357.076,0.0
49156.0,STARLINK-3085,PAYLOAD,2021-10-18 04:00:00,15.69723414,0.0003662,70.0015,31.1496,284.9141,190.8318,0.00080852,0.00097333,0.0,0 STARLINK-3085,1 49156U 21082AC  21291.16667824  .00097333  00000-0  80852-3 0  9994,2 49156  70.0015  31.1496 0003662 284.9141 190.8318 15.69723414  6525,6737.825,91.736,362.158,357.223,0.0
49156.0,STARLINK-3085,PAYLOAD,2021-10-18 14:00:01,15.69778946,0.0003795,70.001,29.9785,290.6822,19.009,0.00041895,0.00050165,0.0,0 STARLINK-3085,1 49156U 21082AC  21291.58334491  .00050165  00000-0  41895-3 0  9997,2 49156  70.0010  29.9785 0003795 290.6822  19.0090 15.69778946  3686,6737.666,91.733,362.088,356.975,0.0
49156.0,STARLINK-3085,PAYLOAD,2021-10-18 20:00:01,15.69851849,0.000387,70.0005,29.2757,290.7863,351.276,-0.00084235,-0.00100016,0.0,0 STARLINK-3085,1 49156U 21082AC  21291.83334491 -.00100016  00000-0 -84235-3 0  9993,2 49156  70.0005  29.2757 0003870 290.7863 351.2760 15.69851849  6639,6737.458000000001,91.728,361.93,356.715,0.0
49156.0,STARLINK-3085,PAYLOAD,2021-10-18 22:00:01,15.69853944,0.0003839,70.0006,29.0414,289.7538,103.1771,-0.0011255999999999,-0.00133066,0.0,0 STARLINK-3085,1 49156U 21082AC  21291.91668981 -.00133066  00000-0 -11256-2 0  9999,2 49156  70.0006  29.0414 0003839 289.7538 103.1771 15.69853944  3709,6737.4519999999975,91.728,361.903,356.73,0.0
49156.0,STARLINK-3085,PAYLOAD,2021-10-19 04:00:00,15.69763591,0.0003825,70.0009,28.3388,286.2241,79.0708,9.1887e-05,0.00010778,0.0,0 STARLINK-3085,1 49156U 21082AC  21292.16667824  .00010778  00000-0  91887-4 0  9994,2 49156  70.0009  28.3388 0003825 286.2241  79.0708 15.69763591  6681,6737.71,91.734,362.153,356.99800000000016,0.0
49156.0,STARLINK-3085,PAYLOAD,2021-10-19 14:00:01,15.69708595,0.0003992,70.001,27.1678,291.1602,268.0841,-0.0002867,-0.00034246,0.0,0 STARLINK-3085,1 49156U 21082AC  21292.58334491 -.00034246  00000-0 -28670-3 0  9998,2 49156  70.0010  27.1678 0003992 291.1602 268.0841 15.69708595  3692,6737.868,91.737,362.423,357.043,0.0
49156.0,STARLINK-3085,PAYLOAD,2021-10-19 20:00:01,15.69730778,0.0003956,70.0006,26.4651,290.8827,240.6475,-0.00089443,-0.00105589,0.0,0 STARLINK-3085,1 49156U 21082AC  21292.83334491 -.00105589  00000-0 -89443-3 0  9990,2 49156  70.0006  26.4651 0003956 290.8827 240.6475 15.69730778  6785,6737.804,91.735,362.335,357.004,0.0
49156.0,STARLINK-3085,PAYLOAD,2021-10-19 22:00:00,15.6973605,0.000389,70.0006,26.2309,289.7088,352.5867,-0.0012675,-0.00148811,0.0,0 STARLINK-3085,1 49156U 21082AC  21292.91667824 -.00148811  00000-0 -12675-2 0  9995,2 49156  70.0006  26.2309 0003890 289.7088 352.5867 15.69736050  3678,6737.7890000000025,91.735,362.275,357.033,0.0
49156.0,STARLINK-3085,PAYLOAD,2021-10-20 06:00:00,15.69623256,0.0003542,70.0008,25.2941,287.2149,78.1222,0.0010869,0.00130902,0.0,0 STARLINK-3085,1 49156U 21082AC  21293.25001157  .00130902  00000-0  10869-2 0  9997,2 49156  70.0008  25.2941 0003542 287.2149  78.1222 15.69623256  6858,6738.111999999999,91.742,362.364,357.59,0.0
49156.0,STARLINK-3085,PAYLOAD,2021-10-20 14:00:01,15.69694434,0.0003603,70.0008,24.3573,293.5216,154.8549,0.00034886,0.00041547,0.0,0 STARLINK-3085,1 49156U 21082AC  21293.58334491  .00041547  00000-0  34886-3 0  9995,2 49156  70.0008  24.3573 0003603 293.5216 154.8549 15.69694434  6908,6737.908,91.738,362.201,357.346,0.0
49156.0,STARLINK-3085,PAYLOAD,2021-10-20 22:00:00,15.69740693,0.0003526999999999,70.0008,23.4204,293.0546,238.3885,-0.00030845,-0.00036861,0.0,0 STARLINK-3085,1 49156U 21082AC  21293.91667824 -.00036861  00000-0 -30845-3 0  9997,2 49156  70.0008  23.4204 0003527 293.0546 238.3885 15.69740693  3665,6737.776,91.735,362.017,357.265,0.0
49156.0,STARLINK-3085,PAYLOAD,2021-10-21 06:00:00,15.69734137,0.0003467,70.0012,22.4838,288.2321,326.3014,0.00027672,0.00032931,0.0,0 STARLINK-3085,1 49156U 21082AC  21294.25001157  .00032931  00000-0  27672-3 0  9992,2 49156  70.0012  22.4838 0003467 288.2321 326.3014 15.69734137  7013,6737.795,91.735,361.996,357.324,0.0
49156.0,STARLINK-3085,PAYLOAD,2021-10-21 14:00:01,15.69734902,0.0003661,70.001,21.547,294.0641,43.594,0.00028443,0.00033861,0.0,0 STARLINK-3085,1 49156U 21082AC  21294.58334491  .00033861  00000-0  28443-3 0  9998,2 49156  70.0010  21.5470 0003661 294.0641  43.5940 15.69734902  3695,6737.792,91.735,362.124,357.191,0.0
49156.0,STARLINK-3085,PAYLOAD,2021-10-21 20:00:01,15.697742600000002,0.0003708,70.0005,20.8442,293.2055,16.7823,-0.00029672,-0.00035523,0.0,0 STARLINK-3085,1 49156U 21082AC  21294.83334491 -.00035523  00000-0 -29672-3 0  9990,2 49156  70.0005  20.8442 0003708 293.2055  16.7823 15.69774260  7105,6737.68,91.733,362.043,357.047,0.0
49156.0,STARLINK-3085,PAYLOAD,2021-10-21 22:00:00,15.69768368,0.0003658,70.0005,20.6099,291.6797,129.0955,-0.00023969,-0.00028752,0.0,0 STARLINK-3085,1 49156U 21082AC  21294.91667824 -.00028752  00000-0 -23969-3 0  9997,2 49156  70.0005  20.6099 0003658 291.6797 129.0955 15.69768368  3685,6737.696999999999,91.733,362.026,357.097,0.0
49156.0,STARLINK-3085,PAYLOAD,2021-10-22 04:00:00,15.69737652,0.0003592,70.0006,19.9073,287.6614,105.4742,0.00059619,0.00071536,0.0,0 STARLINK-3085,1 49156U 21082AC  21295.16667824  .00071536  00000-0  59619-3 0  9992,2 49156  70.0006  19.9073 0003592 287.6614 105.4742 15.69737652  7159,6737.785,91.735,362.07,357.22900000000016,0.0
49156.0,STARLINK-3085,PAYLOAD,2021-10-22 14:00:01,15.69758065,0.0003741,70.0007,18.736,294.2928,292.7869,0.00042287,0.00050595,0.0,0 STARLINK-3085,1 49156U 21082AC  21295.58334491  .00050595  00000-0  42287-3 0  9994,2 49156  70.0007  18.7360 0003741 294.2928 292.7869 15.69758065  7212,6737.726,91.734,362.112,357.071,0.0
49156.0,STARLINK-3085,PAYLOAD,2021-10-22 22:00:01,15.69805301,0.0003611,70.0005,17.799,292.6645,17.6421,-0.00021341,-0.00025671,0.0,0 STARLINK-3085,1 49156U 21082AC  21295.91668981 -.00025671  00000-0 -21341-3 0  9992,2 49156  70.0005  17.7990 0003611 292.6645  17.6421 15.69805301  3672,6737.590999999999,91.731,361.889,357.023,0.0
49156.0,STARLINK-3085,PAYLOAD,2021-10-23 04:00:00,15.69804364,0.0003523999999999,70.0007,17.0964,288.9164,353.7115,-4.1075e-05,-5.124e-05,0.0,0 STARLINK-3085,1 49156U 21082AC  21296.16667824 -.00005124  00000-0 -41075-4 0  9993,2 49156  70.0007  17.0964 0003524 288.9164 353.7115 15.69804364  7312,6737.594,91.731,361.833,357.084,0.0
49156.0,STARLINK-3085,PAYLOAD,2021-10-23 06:00:00,15.69839279,0.000351,70.0009,16.8622,289.7253,103.6902,-0.00071077,-0.00084529,0.0,0 STARLINK-3085,1 49156U 21082AC  21296.25001157 -.00084529  00000-0 -71077-3 0  9994,2 49156  70.0009  16.8622 0003510 289.7253 103.6902 15.69839279  3680,6737.494000000002,91.729,361.724,356.994,0.0
49156.0,STARLINK-3085,PAYLOAD,2021-10-23 12:00:02,15.69769147,0.0003545,70.0009,16.1594,294.4234,71.4668,-0.00010861,-0.00013168,0.0,0 STARLINK-3085,1 49156U 21082AC  21296.50002315 -.00013168  00000-0 -10861-3 0  9994,2 49156  70.0009  16.1594 0003545 294.4234  71.4668 15.69769147  7367,6737.694,91.733,361.948,357.171,0.0
49156.0,STARLINK-3085,PAYLOAD,2021-10-23 22:00:00,15.69731043,0.0003355,70.0,14.9793,288.1226,271.4431,0.00023142,0.00027483,0.0,0 STARLINK-3085,1 49156U 21082AC  21296.91667824  .00027483  00000-0  23142-3 0  9990,2 49156  70.0000  14.9793 0003355 288.1226 271.4431 15.69731043  7426,6737.804,91.735,361.929,357.408,0.0
49156.0,STARLINK-3085,PAYLOAD,2021-10-24 06:00:00,15.69814537,0.00036,70.0006,14.0511,288.3339,354.5436,-0.00077294,-0.00091734,0.0,0 STARLINK-3085,1 49156U 21082AC  21297.25001157 -.00091734  00000-0 -77294-3 0  9998,2 49156  70.0006  14.0511 0003600 288.3339 354.5436 15.69814537  7485,6737.565,91.731,361.855,357.004,0.0
49156.0,STARLINK-3085,PAYLOAD,2021-10-24 14:00:01,15.69705634,0.0003842,70.0002,13.1141,294.6219,71.4392,0.00042288,0.00050487,0.0,0 STARLINK-3085,1 49156U 21082AC  21297.58334491  .00050487  00000-0  42288-3 0  9997,2 49156  70.0002  13.1141 0003842 294.6219  71.4392 15.69705634  3675,6737.876,91.737,362.33,357.153,0.0
49156.0,STARLINK-3085,PAYLOAD,2021-10-24 22:00:00,15.69744343,0.0003785,70.0001,12.1771,292.1740000000001,156.9861,-7.9972e-05,-9.747e-05,0.0,0 STARLINK-3085,1 49156U 21082AC  21297.91667824 -.00009747  00000-0 -79972-4 0  9999,2 49156  70.0001  12.1771 0003785 292.1740 156.9861 15.69744343  7584,6737.765,91.735,362.181,357.08,0.0
